     3.02           N: GNSS NAV DATA    C: BEIDOU           RINEX VERSION / TYPE
Spider v7.5.1.8670  SMO                 20211209 002223 UTC PGM / RUN BY / DATE
BDSA   1.1176D-08  5.2154D-08 -6.5565D-07  1.1325D-06       IONOSPHERIC CORR
BDSB   1.3517D+05 -4.5875D+05  1.3107D+06 -5.8982D+05       IONOSPHERIC CORR
BDUT -6.5192580223D-09 9.769962617D-15 345545  831          TIME SYSTEM CORR
     4     4   829     6                                    LEAP SECONDS
                                                            END OF HEADER
C60 2021 12 08 20 00 00-1.989537850022D-07 3.463895836830D-14 0.000000000000D+00
     1.000000000000D+00-7.489062500000D+01 1.168655838768D-08-1.258375227259D+00
    -2.252869307995D-06 1.460418570787D-04-1.480057835579D-05 6.493430072784D+03
     3.312000000000D+05 6.845220923424D-08 2.544477600231D+00-6.798654794693D-08
     5.924076082690D-02 4.475468750000D+02-8.691813119076D-01-1.066615862300D-08
    -1.167905772093D-10                    8.310000000000D+02                   
     2.000000000000D+00 0.000000000000D+00 4.980000056776D-08 4.980000056776D-08
     3.312004000000D+05 1.000000000000D+00                                      
C05 2021 12 08 20 00 00 3.273101756349D-04 1.199929045015D-11 0.000000000000D+00
     1.000000000000D+00 4.775625000000D+02 9.284315538594D-09 1.638490426617D+00
     1.572677865624D-05 4.626176087186D-04-3.172084689140D-06 6.493397127151D+03
     3.312000000000D+05-4.377216100693D-08 1.775708195500D+00 1.108273863792D-07
     7.217339113430D-02 1.040625000000D+02 2.910829483435D+00-8.175697452373D-09
     2.432244128325D-10                    8.310000000000D+02                   
     2.000000000000D+00 0.000000000000D+00-4.999999858590D-10-9.199999873033D-09
     3.312004000000D+05 0.000000000000D+00                                      
C02 2021 12 08 20 00 00 8.248935919255D-04-3.490630007263D-11 0.000000000000D+00
     1.000000000000D+00 4.120312500000D+02 8.975016285717D-09 1.748584550308D+00
     1.371279358864D-05 1.062817755155D-03-3.093853592873D-06 6.493473327637D+03
     3.312000000000D+05-1.559965312481D-07 1.853707606682D+00 1.639127731323D-07
     8.019224199733D-02 9.846875000000D+01-3.118080593258D+00-8.012119856460D-09
     2.775115692799D-10                    8.310000000000D+02                   
     2.000000000000D+00 0.000000000000D+00 9.999999717181D-10-1.370000024536D-08
     3.312004000000D+05 0.000000000000D+00                                      
C03 2021 12 08 20 00 00 3.259700024500D-04 7.630163167960D-11 0.000000000000D+00
     1.000000000000D+00 3.495312500000D+02 9.307887793852D-09 1.007391192332D+00
     1.170020550489D-05 8.089793846011D-04-3.620516508818D-06 6.493397743225D+03
     3.312000000000D+05-1.839362084866D-07 1.876348512464D+00 6.286427378654D-08
     7.164990638048D-02 1.142812500000D+02-1.936376803055D+00-8.423922004397D-09
     2.867976689469D-10                    8.310000000000D+02                   
     2.000000000000D+00 0.000000000000D+00 2.299999968258D-09-8.099999782019D-09
     3.312004000000D+05 0.000000000000D+00                                      
C38 2021 12 08 20 00 00 1.952213933691D-04 2.746247673713D-12 0.000000000000D+00
     1.000000000000D+00-3.227031250000D+02 1.004327510046D-09-1.861386994720D+00
    -1.051556318998D-05 2.307790331542D-03-5.149282515049D-06 6.493546352386D+03
     3.312000000000D+05 1.098960638046D-07-3.306798342110D-01-1.676380634308D-08
     9.827599528567D-01 4.010625000000D+02-2.998219254587D+00-2.505104346184D-09
    -4.821629553953D-11                    8.310000000000D+02                   
     2.000000000000D+00 0.000000000000D+00 5.199999986161D-09 5.199999986161D-09
     3.312000000000D+05 1.000000000000D+00                                      
C39 2021 12 08 20 00 00 3.430829383433D-05 2.851052727237D-13 0.000000000000D+00
     1.000000000000D+00-3.189062500000D+01 1.238622981958D-09 2.613409116625D+00
    -7.436610758305D-07 2.098565222695D-03 1.611653715372D-05 6.493709890366D+03
     3.312000000000D+05-9.965151548386D-08 1.735297890900D+00-9.825453162193D-08
     9.608012511258D-01-2.561875000000D+02 3.018358081838D+00-1.827218931716D-09
     7.557457437635D-10                    8.310000000000D+02                   
     2.000000000000D+00 0.000000000000D+00 4.199999903420D-09 4.199999903420D-09
     3.312000000000D+05 1.000000000000D+00                                      
C40 2021 12 08 20 00 00 2.248127711937D-04 3.351985355948D-12 0.000000000000D+00
     1.000000000000D+00 3.363906250000D+02 6.600274771174D-10 2.869632177184D-01
     1.091975718737D-05 1.799347577617D-03 1.833541318774D-05 6.493611112595D+03
     3.312000000000D+05-3.958120942116D-08-2.368040579058D+00 3.445893526077D-08
     1.005133070021D+00-3.108437500000D+02-3.098995454697D+00-1.687213146973D-09
    -6.046680378624D-10                    8.310000000000D+02                   
     2.000000000000D+00 0.000000000000D+00 1.199999988266D-09 1.199999988266D-09
     3.312000000000D+05 1.000000000000D+00                                      
C41 2021 12 07 21 00 00-9.157732129097D-04-6.750155989721D-13 0.000000000000D+00
     1.000000000000D+00-1.168906250000D+02 3.460501218910D-09-2.832683265497D+00
    -5.888752639294D-06 1.287816907279D-03 9.958166629076D-06 5.282627819061D+03
     2.484000000000D+05 2.328306436539D-08 7.679755332178D-01-9.778887033463D-09
     9.652905517232D-01 1.599687500000D+02-1.728037741537D+00-6.478841463320D-09
     3.489430966397D-10                    8.310000000000D+02                   
     2.000000000000D+00 0.000000000000D+00-2.330000015149D-08-2.330000015149D-08
     2.484000000000D+05 1.000000000000D+00                                      
C42 2021 12 08 19 00 00-9.351818589494D-04 3.194777775661D-12 0.000000000000D+00
     1.000000000000D+00-1.199062500000D+02 3.594435415977D-09 2.858177456941D+00
    -6.123445928097D-06 1.094610779546D-03 8.578412234783D-06 5.282626146317D+03
     3.276000000000D+05 1.396983861923D-09 7.680038406827D-01-1.257285475731D-08
     9.653421971202D-01 1.897656250000D+02-1.406686791088D+00-6.599203405955D-09
     1.792931775269D-10                    8.310000000000D+02                   
     2.000000000000D+00 0.000000000000D+00-3.250000091271D-08-3.250000091271D-08
     3.276000000000D+05 1.000000000000D+00                                      
C43 2021 12 08 20 00 00-9.556824807078D-04 2.395417197931D-12 0.000000000000D+00
     1.000000000000D+00 9.626562500000D+01 3.856946317882D-09 3.024900113974D+00
     4.770234227180D-06 4.172574263066D-04 5.153939127922D-06 5.282616847992D+03
     3.312000000000D+05 1.396983861923D-08-1.340841369139D+00-6.984919309616D-09
     9.596738635485D-01 2.573437500000D+02 2.313767077572D-01-7.005291902118D-09
     9.143238249854D-11                    8.310000000000D+02                   
     2.000000000000D+00 0.000000000000D+00-3.500000067547D-09-3.500000067547D-09
     3.312000000000D+05 1.000000000000D+00                                      
C44 2021 12 08 14 00 00 4.914907040074D-04 1.253308568039D-11 0.000000000000D+00
     1.000000000000D+00 9.756250000000D+01 3.762656852757D-09 1.629030880864D+00
     4.789326339960D-06 6.188576808199D-04 3.525055944920D-06 5.282627532959D+03
     3.096000000000D+05-4.656612873077D-10-1.340611941160D+00 2.561137080193D-08
     9.601242082500D-01 2.879531250000D+02 2.499255946785D-01-7.044936189970D-09
     1.732215065831D-10                    8.310000000000D+02                   
     2.000000000000D+00 0.000000000000D+00-1.500000013088D-09-1.500000013088D-09
     3.096000000000D+05 1.000000000000D+00                                      
C45 2021 12 08 10 00 00 6.213032174855D-04 1.002042893106D-11 0.000000000000D+00
     1.000000000000D+00 6.828125000000D+00 4.179459889286D-09 2.854613219424D+00
     3.343448042870D-07 5.864332197234D-04 7.089227437973D-06 5.282613565445D+03
     2.952000000000D+05 2.700835466385D-08 2.872470235332D+00 4.237517714500D-08
     9.539178894805D-01 2.152031250000D+02-2.727974879104D-02-6.861000212410D-09
    -4.114457108351D-10                    8.310000000000D+02                   
     2.000000000000D+00 0.000000000000D+00-2.720000047418D-08-2.720000047418D-08
     2.952000000000D+05 1.000000000000D+00                                      
C46 2021 12 08 04 00 00-4.904717206955D-05-2.016342648403D-11 0.000000000000D+00
     1.000000000000D+00 1.109375000000D+01 4.196960556868D-09 1.503293815113D+00
     3.888271749020D-07 8.851427119225D-04 7.203314453363D-06 5.282614528656D+03
     2.736000000000D+05 2.188608050346D-08 2.873141258300D+00 1.816079020500D-08
     9.539565631828D-01 2.107656250000D+02-4.911022282648D-02-6.817426623229D-09
    -3.768014233962D-10                    8.310000000000D+02                   
     2.000000000000D+00 0.000000000000D+00-2.300000012667D-08-2.300000012667D-08
     2.736000000000D+05 1.000000000000D+00                                      
C56 2021 12 08 01 00 00 1.299607101828D-04 3.799627279477D-12 0.000000000000D+00
     2.900000000000D+01 5.868750000000D+01 1.208978916978D-09 2.457763249579D+00
     2.125743776560D-06 4.581383429468D-03 2.644862979650D-05 6.493563993454D+03
     2.628000000000D+05-1.331791281700D-07 2.517593247476D+00-2.030283212662D-07
     9.120457376573D-01-6.000468750000D+02-2.988816838710D+00-1.677212702056D-09
    -1.258266713045D-09                    8.310000000000D+02                   
     2.000000000000D+00 1.000000000000D+00-3.010000071413D-08 0.000000000000D+00
    -3.747000000000D+04 2.900000000000D+01                                      
